AEROCUBE 12A
1 43556U 18046C   19206.12875599  .00000154  00000-0  18080-4 0  9997
2 43556  51.6411 241.8618 0008313 197.3590 162.7107 15.28780223 57130
AEROCUBE 12B
1 43557U 18046D   19206.14537875 -.00000346  00000-0  46625-6 0  9994
2 43557  51.6416 241.9686 0008267 197.5687 162.5008 15.28648408 57089
AGILE
1 31135U 07013A   19205.54825712 +.00001688 +00000-0 +17488-4 0  9990
2 31135 002.4670 243.9101 0011745 080.7990 279.3392 15.31669060314128
ALTAIR PATHFINDER
1 42711U 98067LS  19206.11114047  .00033402  00000-0  15595-3 0  9992
2 42711  51.6334 100.5729 0000856 260.4397  99.6509 15.82965838124856
APEX
1 23191U 94046A   19206.20593827  .00002060  00000-0  67061-4 0  9995
2 23191  69.9165 225.7772 0566253 249.8301 104.1086 14.47833393227387
APRIZESAT 10
1 40019U 14033K   19206.31953671 -.00000024  00000-0  42643-5 0  9999
2 40019  97.7424  49.6924 0085186  35.9934 324.6967 14.66997706272838
AQUA
1 27424U 02022A   19206.21836451  .00000049  00000-0  20838-4 0  9991
2 27424  98.2042 146.5156 0000973 356.1818 333.5741 14.57112929916110
ASTERIA
1 43020U 98067NH  19206.17894444  .00016332  00000-0  12857-3 0  9999
2 43020  51.6420 133.1282 0000922 264.5150  95.5743 15.71628281 95597
BEIDOU 2 G8
1 44231U 19027A   19205.86741961 -.00000132 +00000-0 +00000-0 0  9999
2 44231 001.7236 293.9197 0003169 167.3053 233.3217 01.00270823000834
BEIDOU 3M18
1 43707U 18093B   19205.68600188 +.00000009 +00000-0 +00000-0 0  9995
2 43707 054.8320 268.2427 0008998 269.3242 013.4488 01.86231890004604
BEIDOU IGSO-7
1 43539U 18057A   19205.65821802 -.00000069 +00000-0 +00000-0 0  9990
2 43539 055.0407 185.2680 0023752 202.9787 263.8578 01.00266405003894
CARBONITE 2
1 43115U 18004E   19206.34878418  .00000231  00000-0  13098-4 0  9999
2 43115  97.4846 273.2723 0011808 111.7377 248.5117 15.22326058 85055
CATSAT-1
1 44033U 98067PZ  19206.33206697  .00005344  00000-0  79679-4 0  9996
2 44033  51.6386 167.7809 0004217 291.4314  68.6227 15.56873846 27194
COSMOS 2433 (GLONASS)
1 32275U 07052A   19205.50897545 -.00000026 +00000-0 +10000-3 0  9996
2 32275 065.8666 039.8910 0000909 222.7944 169.7387 02.13104322091409
COSMOS 2510
1 41032U 15066A   19206.19636601 -.00000769  00000-0  00000+0 0  9990
2 41032  63.1386 287.6319 7058432 269.7681 100.4536  2.00618811 27008
CUBERRT
1 43546U 98067NU  19206.28725342  .00014122  00000-0  14203-3 0  9996
2 43546  51.6371 153.9629 0003458 280.5227  79.5379 15.65734768 58722
DELLINGR (RBLE)
1 43021U 98067NJ  19206.27537819  .00005731  00000-0  66280-4 0  9992
2 43021  51.6376 147.1650 0001413 234.5999 125.4864 15.63540543 95419
DELPHINI
1 44030U 98067PW  19206.32337738  .00006995  00000-0  10150-3 0  9994
2 44030  51.6376 167.7087 0003893 290.6393  69.4182 15.57053365 27258
DEORBITSAIL
1 40719U 15032E   19205.77098851 +.00000221 +00000-0 +38664-4 0  9990
2 40719 097.9047 096.8568 0015926 184.4532 175.6539 14.76757735217582
EQUISAT
1 43552U 98067PA  19206.32836051  .00008997  00000-0  10573-3 0  9997
2 43552  51.6377 157.2637 0005121 288.3834  71.6603 15.62282213 58745
ERS 2
1 23560U 95021A   19206.30204663  .00000574  00000-0  28468-4 0  9993
2 23560  98.5065 310.9505 0003086 189.5237 170.5938 15.22624451292206
EXOS D (AKEBONO)
1 19822U 89016A   19205.86635358 +.00018400 -84389-7 +32972-3 0  9996
2 19822 075.0270 107.3375 1782751 096.6005 284.0077 11.96918621000099
EXPLORER 7
1    22U 59009A   19206.17628546 -.00000087  00000-0  17125-4 0  9990
2    22  50.2822 202.0576 0139988  84.7176 276.9726 14.94887737176212
FUNCUBE 1
1 39444U 13066AE  19205.62641621  .00000152  00000-0  25164-4 0  9995
2 39444  97.5597 219.0889 0056433 269.9584  89.5163 14.81948211305255
FUSE 1
1 25791U 99035A   19205.89251942  .00000186  00000-0  15632-5 0  9994
2 25791  24.9860   8.7853 0010263 193.1318 166.8923 14.42784403 59640
GALILEO 23 (2C9)
1 43566U 18060C   19204.95171183 -.00000051  00000-0  00000+0 0  9996
2 43566  56.5908  50.0881 0001902 285.9691  74.0744  1.70475796  6225
GALILEO 24 (2C0)
1 43567U 18060D   19205.75814871 -.00000049  00000-0  00000+0 0  9991
2 43567  56.5908  50.0672 0001963 288.1209  71.9231  1.70475820  6215
GALILEO 26 (2C2)
1 43565U 18060B   19204.73171584 -.00000052 +00000-0 +00000-0 0  9998
2 43565 056.5912 050.0926 0002331 294.0595 065.9805 01.70475947006247
GALILEO 9 (205)
1 40889U 15045A   19205.85704413 -.00000023 +00000-0 +00000-0 0  9999
2 40889 056.4139 291.1379 0001446 006.7839 353.2776 01.70475514024068
GEOTAIL
1 22049U 92044A   19209.82214399 -.00000436  00000-0  00000+0 0  9998
2 22049  20.2253  56.7330 5674239 154.3791 357.6262  0.19186945 10929
GIOVE-B
1 32781U 08020A   19204.75697158 -.00000031  00000-0  00000+0 0  9999
2 32781  57.7254  98.9634 0001633 252.8430 107.1935  1.65405550 68774
GLOBALSTAR M096
1 39075U 13005D   19205.83037487 -.00000098 +00000-0 +29691-4 0  9999
2 39075 052.0086 308.3491 0000894 134.3644 225.7296 12.62265661299551
GOKTURK-1A
1 41875U 16073A   19206.34147693 -.00000008  00000-0  76731-5 0  9995
2 41875  98.1302 100.3645 0001195  79.8522 280.2804 14.62780265140592
HALOSAT
1 43549U 98067NX  19206.33385142  .00008774  00000-0  10461-3 0  9993
2 43549  51.6367 158.0234 0004515 282.0504  77.9984 15.61944235 58360
HARBINGER
1 44229U 19026E   19205.92640507 +.00000426 +00000-0 +27188-4 0  9991
2 44229 040.0207 123.3359 0007123 147.5245 212.5997 15.20519942012278
HUBBLE SPACE TELESCOPE
1 20580U 90037B   19205.79893196  .00000315  00000-0  82105-5 0  9993
2 20580  28.4703 333.1788 0002735 149.6577 345.3812 15.09247229406355
INTEGRAL
1 27540U 02048A   19204.73642588  .00000895  00000-0  00000+0 0  9992
2 27540  50.0232 140.9479 8811126 279.8720   3.5878  0.37588613 17154
IRAZU
1 43468U 98067NR  19206.06374319  .00022483  00000-0  18398-3 0  9997
2 43468  51.6349 145.6843 0000825  57.5944 302.5134 15.70444625168668
IRIDIUM 117
1 42808U 17039F   19206.40998633  .00000056  00000-0  12888-4 0  9994
2 42808  86.3990 326.1633 0001678  89.8247 270.3141 14.34218132108964
IRIDIUM 119
1 42959U 17061E   19206.48317783  .00000063  00000-0  15479-4 0  9992
2 42959  86.3984 357.7570 0002343  80.1713 279.9747 14.34218092 93804
ISO
1 23715U 95062A   19205.60192614 -.00000202  00000-0  16642-2 0  9992
2 23715   3.9618 329.4738 8369296 312.6873   2.8018  1.02012755 87957
ISS (ZARYA)
1 25544U 98067A   19206.39971231  .00000193  00000-0  11111-4 0  9995
2 25544  51.6431 171.6834 0006556 176.9523 320.2090 15.50999789181184
KESTREL EYE 2M
1 42982U 98067NE  19206.30254575  .00005699  00000-0  66909-4 0  9997
2 42982  51.6366 147.3031 0003297 285.6256  74.4374 15.63162701 99647
KMS 3-2
1 39026U 12072A   19206.01295632  .00000847  00000-0  33223-4 0  9994
2 39026  97.2110 207.9847 0037235 334.8121  25.1302 15.27880899367142
KMS 4
1 41332U 16009A   19206.19354963  .00000981  00000-0  32691-4 0  9990
2 41332  97.3618 274.4925 0023797 160.2175 199.9996 15.33316189193412
LANDSAT 8
1 39084U 13008A   19206.36435288 -.00000471  00000-0 -94586-4 0  9993
2 39084  98.2221 275.8711 0001296  95.7202 264.4169 14.57100824342928
LEMUR 2 ALEXANDER
1 43559U 18046F   19206.15445985  .00000874  00000-0  42469-4 0  9992
2 43559  51.6416 240.5678 0007707 201.1090 158.9573 15.29563780 56923
LEMUR 2 VU
1 43558U 18046E   19205.57636444  .00001451  00000-0  62481-4 0  9996
2 43558  51.6416 243.4547 0007763 198.7369 161.3326 15.29465720 57055
LEMUR 2 YUASA
1 43560U 18046G   19205.97249031  .00001150  00000-0  52156-4 0  9999
2 43560  51.6416 241.5924 0008059 214.0977 145.9487 15.29433066 57113
LIGHTSAIL 2
1 44420U 19036AC  19204.83651463  .00000326  00000-0  27808-4 0  9995
2 44420  24.0060  25.2682 0011762 151.4532 208.6604 14.52526370  2284
M6P
1 44109U 19018AF  19206.41708742  .00000693  00000-0  25648-4 0  9995
2 44109  97.5072 268.1298 0059291 294.9266 119.4294 15.29782230 17412
MERIDIAN 7
1 40296U 14069A   19206.30366771  .00000149  00000-0  00000+0 0  9995
2 40296  62.8923 158.8486 6805321 273.8521 298.2630  2.00619887 34699
METEOR M2
1 40069U 14037A   19206.41316436 -.00000022  00000-0  92203-5 0  9996
2 40069  98.5483 250.5379 0006205 144.8030 215.3554 14.20663377261634
METOP-B
1 38771U 12049A   19206.40831316 -.00000023  00000-0  94044-5 0  9998
2 38771  98.7007 265.2210 0001161 146.9440 276.6568 14.21492961355411
MICRO LABSAT
1 27600U 02056D   19206.21728042 -.00000014  00000-0  11135-4 0  9993
2 27600  98.4919 152.4516 0011617 134.5216 225.6917 14.29632069866531
MMS 1
1 40482U 15011A   19194.71760397 -.00002293  00000-0  00000+0 0  9996
2 40482  14.5183 118.3053 9015604  14.6412  81.9539  0.28581536 10246
NAVSTAR 75 (USA 265)
1 41019U 15062A   19205.95110487 -.00000005  00000-0  00000+0 0  9996
2 41019  55.1968 129.7677 0047769 207.2855 152.4697  2.00564705 27307
NIGERIASAT X
1 37790U 11044C   19206.39721305  .00000008  00000-0  11333-4 0  9997
2 37790  98.0409 275.8263 0011604 329.0499  31.0019 14.58609673423034
NOAA 19
1 33591U 09005A   19206.59801294  .00000058  00000-0  56870-4 0  9994
2 33591  99.1810 198.6168 0012911 275.7370  84.2329 14.12367035539114
NSIGHT-1
1 42726U 98067MF  19206.20248624  .00014637  00000-0  11171-3 0  9992
2 42726  51.6359 121.8002 0003567 326.8999  33.1775 15.72472967123566
O3B FM15
1 43231U 18024A   19205.87125027 -.00000018 +00000-0 +00000-0 0  9997
2 43231 000.0463 013.4145 0002620 110.6931 235.9167 05.00115108025121
OBJECT D (MICRODRAGON)
1 43935U 19003D   19206.38507120  .00000346  00000-0  18058-4 0  9990
2 43935  97.2798 262.9097 0017387 313.1928 103.1245 15.22087421 28644
OBJECT F (MYSAT-1)
1 44045U 18092F   19206.37434227  .00000384  00000-0  22300-4 0  9993
2 44045  51.6410 193.2440 0011593 213.1793 146.8477 15.35037195 24871
OBJECT PN
1 43638U 98067PN  19205.84304080 +.00004771 +00000-0 +68270-4 0  9994
2 43638 051.6371 166.7497 0002022 227.5296 132.5525 15.58284057045353
ONEWEB-0011
1 44062U 19010F   19205.90407967 +.00000114 +00000-0 +27021-3 0  9997
2 44062 087.8859 039.9024 0001542 077.8917 282.2385 13.15480044019797
